{"type": "FeatureCollection", "name": "Kyiv Oblast Raions 2020", "crs": {"type": "name", "properties": {"name": "urn:ogc:def:crs:OGC:1.3:CRS84"}}, "features": [{"type": "Feature", "properties": {"NAME": "Бориспільський район", "NAME_SHORT": "Бориспільський", "ADMIN_LVL": "6", "source": "slawomirmatuszak/ukrainian_geodata rayony.geojson (UA raions 2020)"}, "geometry": {"type": "MultiPolygon", "coordinates": [[[[31.73418, 49.870004], [31.715996, 49.850172], [31.662114, 49.857804], [31.642592, 49.858429], [31.615914, 49.855706], [31.617679, 49.883164], [31.610897, 49.889096], [31.614531, 49.891236], [31.612084, 49.906479], [31.582802, 49.907753], [31.582987, 49.899403], [31.580868, 49.899327], [31.580868, 49.895489], [31.568816, 49.895558], [31.568619, 49.887966], [31.560671, 49.880115], [31.558207, 49.875358], [31.547085, 49.874458], [31.5448, 49.877834], [31.541302, 49.878623], [31.540669, 49.87543], [31.536742, 49.875671], [31.53024, 49.872074], [31.521483, 49.872615], [31.516951, 49.8706], [31.520341, 49.864157], [31.5194, 49.861971], [31.512, 49.856699], [31.514196, 49.847201], [31.512237, 49.845362], [31.50042, 49.843691], [31.497369, 49.860819], [31.494824, 49.861582], [31.48868, 49.857447], [31.474913, 49.860709], [31.471821, 49.873492], [31.462915, 49.873408], [31.461887, 49.877524], [31.443309, 49.876841], [31.43217, 49.899004], [31.426783, 49.899187], [31.421529, 49.915922], [31.425272, 49.924956], [31.423668, 49.932398], [31.432872, 49.94306], [31.432328, 49.954685], [31.435998, 49.964366], [31.446926, 49.973571], [31.44156, 49.981574], [31.42406, 49.991336], [31.411724, 49.990772], [31.38888, 49.995345], [31.356169, 49.991118], [31.316187, 49.992647], [31.309143, 49.991675], [31.300911, 49.98623], [31.297173, 49.979219], [31.297447, 49.976182], [31.292521, 49.976175], [31.288721, 49.974004], [31.283694, 49.96494], [31.280691, 49.9482], [31.271207, 49.940964], [31.256479, 49.935921], [31.225895, 49.940441], [31.181319, 49.950885], [31.157545, 49.959144], [31.144507, 49.968421], [31.139208, 49.973888], [31.135741, 49.983054], [31.130967, 49.985671], [31.126265, 49.986415], [31.106103, 49.984161], [31.085038, 49.98052], [31.069007, 49.975069], [31.046975, 50.000082], [31.0113, 50.020155], [30.998363, 50.030371], [30.972248, 50.045584], [30.963582, 50.054434], [30.962352, 50.058985], [30.963704, 50.066939], [30.957696, 50.075796], [30.948194, 50.081591], [30.927816, 50.087549], [30.92308, 50.094668], [30.922366, 50.103785], [30.915379, 50.108885], [30.896433, 50.129583], [30.885216, 50.135496], [30.881578, 50.141234], [30.868525, 50.142965], [30.857354, 50.149496], [30.848924, 50.150583], [30.841407, 50.14749], [30.834859, 50.149698], [30.824189, 50.148568], [30.817578, 50.152173], [30.816393, 50.156972], [30.800523, 50.16372], [30.796737, 50.163648], [30.78479, 50.158757], [30.774076, 50.160314], [30.77071, 50.163358], [30.764844, 50.175061], [30.759351, 50.180108], [30.749753, 50.183839], [30.743011, 50.189981], [30.742323, 50.192609], [30.750091, 50.204106], [30.750202, 50.208619], [30.74459, 50.211255], [30.714457, 50.215226], [30.707898, 50.219091], [30.707955, 50.222924], [30.710482, 50.227483], [30.720492, 50.23763], [30.711376, 50.250978], [30.693287, 50.260881], [30.678012, 50.259385], [30.657448, 50.266767], [30.660543, 50.270938], [30.670258, 50.275163], [30.671897, 50.277207], [30.671138, 50.279391], [30.660439, 50.285309], [30.650988, 50.292942], [30.637997, 50.308225], [30.626824, 50.318325], [30.620204, 50.329893], [30.605169, 50.343385], [30.616738, 50.348493], [30.625273, 50.348827], [30.627087, 50.348215], [30.627541, 50.345183], [30.629743, 50.344489], [30.630515, 50.341921], [30.636381, 50.337746], [30.642744, 50.337513], [30.639203, 50.339251], [30.655958, 50.34114], [30.657732, 50.342762], [30.649163, 50.359936], [30.65689, 50.362631], [30.65884, 50.36533], [30.668554, 50.36708], [30.67062, 50.369871], [30.676186, 50.369808], [30.679232, 50.371441], [30.677882, 50.368683], [30.672342, 50.366586], [30.673069, 50.365658], [30.668632, 50.359832], [30.672706, 50.355323], [30.6778, 50.353019], [30.685877, 50.352692], [30.695231, 50.349749], [30.696739, 50.347414], [30.711028, 50.352437], [30.713418, 50.356493], [30.70992, 50.361538], [30.706717, 50.363403], [30.70837, 50.364798], [30.706214, 50.365876], [30.714954, 50.3687], [30.711166, 50.373009], [30.712951, 50.374384], [30.711198, 50.376113], [30.711585, 50.378505], [30.713573, 50.378973], [30.714275, 50.381132], [30.72061, 50.38207], [30.727361, 50.378716], [30.729209, 50.376532], [30.727139, 50.375477], [30.742291, 50.371985], [30.752663, 50.375548], [30.76218, 50.375093], [30.764283, 50.380611], [30.777453, 50.3826], [30.780619, 50.385443], [30.776099, 50.388941], [30.775303, 50.394214], [30.776601, 50.395095], [30.790473, 50.397868], [30.802347, 50.392999], [30.813224, 50.391885], [30.816947, 50.393353], [30.8264, 50.404073], [30.866035, 50.431883], [30.885251, 50.449066], [30.893986, 50.454971], [30.914807, 50.464348], [30.943547, 50.473999], [30.958462, 50.473889], [30.968438, 50.48171], [30.9899, 50.474824], [31.000665, 50.475904], [31.003961, 50.470178], [31.000408, 50.468458], [31.00031, 50.466703], [31.007028, 50.461893], [31.008231, 50.457754], [31.012204, 50.457056], [31.028603, 50.458429], [31.043902, 50.469964], [31.056595, 50.476344], [31.099097, 50.476512], [31.14217, 50.444384], [31.148446, 50.445136], [31.163483, 50.441589], [31.183129, 50.447902], [31.224623, 50.422432], [31.208217, 50.418258], [31.215168, 50.414024], [31.211516, 50.410694], [31.218306, 50.407089], [31.211831, 50.401126], [31.217627, 50.397651], [31.213652, 50.390952], [31.220175, 50.389587], [31.21422, 50.38185], [31.201817, 50.383959], [31.210802, 50.360468], [31.176346, 50.361719], [31.168543, 50.355356], [31.160267, 50.345643], [31.150503, 50.343168], [31.14998, 50.339883], [31.143203, 50.336725], [31.145335, 50.328237], [31.146542, 50.31036], [31.150205, 50.306466], [31.155543, 50.306214], [31.155199, 50.299096], [31.163349, 50.296589], [31.1866, 50.294984], [31.206584, 50.284788], [31.210531, 50.247982], [31.190612, 50.206058], [31.187902, 50.203307], [31.188069, 50.198875], [31.212393, 50.188941], [31.271878, 50.188572], [31.271964, 50.167927], [31.347128, 50.175851], [31.371727, 50.175519], [31.379547, 50.173566], [31.396426, 50.165864], [31.403474, 50.165839], [31.41887, 50.170764], [31.420429, 50.173411], [31.418114, 50.186842], [31.398252, 50.219531], [31.391086, 50.225676], [31.381459, 50.225558], [31.379717, 50.246439], [31.357787, 50.260554], [31.362227, 50.267181], [31.37198, 50.274345], [31.379926, 50.278434], [31.394902, 50.271564], [31.415749, 50.255199], [31.419865, 50.259094], [31.442893, 50.246429], [31.486275, 50.23277], [31.488916, 50.238736], [31.499331, 50.243172], [31.49589, 50.248576], [31.495883, 50.251704], [31.50703, 50.257905], [31.50706, 50.269804], [31.513129, 50.274999], [31.536935, 50.276556], [31.549655, 50.289137], [31.561396, 50.30429], [31.587649, 50.293753], [31.579841, 50.282599], [31.587642, 50.279875], [31.581793, 50.26417], [31.601412, 50.254588], [31.603983, 50.256816], [31.629324, 50.263343], [31.638094, 50.271239], [31.645752, 50.273216], [31.645899, 50.279609], [31.675888, 50.27977], [31.672859, 50.286407], [31.671822, 50.294559], [31.672863, 50.306923], [31.668775, 50.320008], [31.669673, 50.322873], [31.682401, 50.327027], [31.691132, 50.333745], [31.697938, 50.334573], [31.701364, 50.336682], [31.703996, 50.342614], [31.715812, 50.347719], [31.718768, 50.350874], [31.714111, 50.357927], [31.714178, 50.360445], [31.736344, 50.393702], [31.743678, 50.400748], [31.745768, 50.409377], [31.761621, 50.408481], [31.762078, 50.406726], [31.757894, 50.403602], [31.758269, 50.402373], [31.764364, 50.400855], [31.775446, 50.403377], [31.83465, 50.404659], [31.8937, 50.368389], [31.971442, 50.365327], [31.980549, 50.349545], [32.007513, 50.346308], [32.012827, 50.343378], [32.029514, 50.343363], [32.036578, 50.346792], [32.027712, 50.355619], [32.026652, 50.364912], [32.013884, 50.371409], [32.006326, 50.37742], [32.008279, 50.38035], [32.010045, 50.390101], [32.034059, 50.389976], [32.037721, 50.385234], [32.053061, 50.38333], [32.067076, 50.374385], [32.068232, 50.372298], [32.074778, 50.372851], [32.076922, 50.374526], [32.090514, 50.369678], [32.102885, 50.373675], [32.106624, 50.377326], [32.120071, 50.379669], [32.154834, 50.376106], [32.160216, 50.368702], [32.157181, 50.364483], [32.141884, 50.35197], [32.152485, 50.334956], [32.144441, 50.322959], [32.130376, 50.316032], [32.14163, 50.305202], [32.08685, 50.283609], [32.098715, 50.278334], [32.095328, 50.27614], [32.100668, 50.276022], [32.09037, 50.246678], [32.10009, 50.241998], [32.096496, 50.238187], [32.11773, 50.229157], [32.109619, 50.229424], [32.107631, 50.228227], [32.106293, 50.220654], [32.086811, 50.222192], [32.077439, 50.209629], [32.062382, 50.195702], [32.05658, 50.188236], [32.036927, 50.1903], [32.016853, 50.203299], [32.014812, 50.206103], [31.99401, 50.202323], [31.992809, 50.197772], [32.001358, 50.194751], [31.998378, 50.193881], [31.984309, 50.179213], [31.965252, 50.151876], [31.935935, 50.158037], [31.946925, 50.137902], [31.956915, 50.141664], [31.973018, 50.124544], [31.94605, 50.115594], [31.911237, 50.101532], [31.909878, 50.074909], [31.907459, 50.059574], [31.905649, 50.057297], [31.9106, 50.056549], [31.925565, 50.060837], [31.987916, 50.051408], [31.979394, 50.038303], [31.967297, 50.044155], [31.931027, 50.03144], [31.916865, 50.028094], [31.906451, 50.023555], [31.906009, 50.019053], [31.900656, 50.019236], [31.907109, 50.014506], [31.908727, 50.011134], [31.911411, 49.99906], [31.908605, 49.996688], [31.916456, 49.980002], [31.917703, 49.96562], [31.916547, 49.960336], [31.90226, 49.9442], [31.897096, 49.949175], [31.890469, 49.950685], [31.890596, 49.962991], [31.814937, 49.967351], [31.814188, 49.959714], [31.791508, 49.930576], [31.770702, 49.919677], [31.772538, 49.893813], [31.755711, 49.89342], [31.73418, 49.870004]]]]}}, {"type": "Feature", "properties": {"NAME": "Білоцерківський район", "NAME_SHORT": "Білоцерківський", "ADMIN_LVL": "6", "source": "slawomirmatuszak/ukrainian_geodata rayony.geojson (UA raions 2020)"}, "geometry": {"type": "MultiPolygon", "coordinates": [[[[29.876848, 49.198884], [29.883621, 49.189698], [29.88242, 49.186681], [29.857916, 49.188335], [29.820883, 49.179008], [29.814734, 49.186645], [29.760186, 49.179942], [29.727857, 49.208182], [29.740328, 49.211547], [29.745838, 49.222975], [29.754577, 49.226654], [29.742726, 49.225794], [29.722617, 49.231444], [29.719178, 49.234069], [29.715724, 49.241091], [29.719042, 49.244136], [29.719478, 49.246581], [29.708875, 49.262565], [29.699745, 49.259421], [29.692964, 49.254988], [29.691995, 49.245654], [29.689083, 49.2368], [29.662092, 49.25043], [29.645494, 49.246248], [29.639148, 49.248342], [29.612199, 49.265875], [29.621571, 49.274527], [29.61539, 49.276297], [29.618322, 49.282092], [29.606435, 49.299388], [29.613937, 49.302481], [29.617806, 49.306189], [29.614647, 49.308592], [29.601479, 49.315146], [29.57689, 49.323607], [29.573091, 49.324111], [29.568709, 49.318988], [29.563836, 49.323004], [29.550186, 49.322446], [29.536947, 49.324026], [29.521817, 49.337488], [29.523808, 49.347688], [29.517992, 49.362582], [29.513206, 49.367133], [29.503175, 49.370954], [29.502323, 49.385867], [29.508693, 49.386218], [29.508952, 49.387629], [29.505104, 49.394961], [29.539892, 49.400767], [29.561001, 49.415886], [29.559221, 49.417434], [29.575009, 49.428379], [29.571991, 49.433571], [29.592829, 49.443982], [29.588315, 49.454682], [29.567453, 49.459622], [29.561401, 49.462655], [29.545584, 49.484872], [29.545755, 49.487092], [29.550976, 49.489503], [29.552922, 49.494031], [29.557701, 49.497235], [29.583607, 49.495301], [29.582728, 49.500603], [29.584292, 49.501371], [29.584277, 49.506487], [29.574602, 49.507146], [29.56963, 49.503941], [29.550189, 49.519269], [29.541659, 49.52179], [29.54065, 49.533051], [29.544323, 49.532941], [29.543751, 49.537428], [29.540258, 49.538602], [29.538464, 49.542272], [29.531133, 49.563909], [29.499346, 49.594431], [29.505453, 49.597338], [29.498877, 49.600977], [29.512404, 49.612951], [29.509055, 49.619192], [29.519527, 49.625068], [29.52797, 49.632441], [29.533265, 49.630042], [29.536908, 49.635878], [29.520881, 49.641402], [29.520488, 49.645728], [29.505306, 49.64931], [29.513479, 49.663398], [29.487847, 49.669951], [29.491931, 49.696147], [29.491796, 49.708434], [29.497219, 49.713245], [29.444974, 49.71466], [29.435086, 49.729064], [29.444699, 49.731952], [29.462139, 49.761833], [29.450533, 49.787971], [29.445, 49.788818], [29.438425, 49.805431], [29.448561, 49.802357], [29.471079, 49.815679], [29.483271, 49.802339], [29.490597, 49.806005], [29.488326, 49.808682], [29.496909, 49.812264], [29.494572, 49.814954], [29.496325, 49.816064], [29.493389, 49.82198], [29.490116, 49.825765], [29.507105, 49.835344], [29.524098, 49.826326], [29.54243, 49.821116], [29.549189, 49.82844], [29.547839, 49.836042], [29.574134, 49.83724], [29.572972, 49.83993], [29.574521, 49.840919], [29.595578, 49.843005], [29.599909, 49.845855], [29.601805, 49.85575], [29.619839, 49.852512], [29.62591, 49.860645], [29.636096, 49.865547], [29.638934, 49.868981], [29.652434, 49.865181], [29.667048, 49.874607], [29.646429, 49.877926], [29.700416, 49.90614], [29.731696, 49.882161], [29.784337, 49.900423], [29.825474, 49.877666], [29.851851, 49.871013], [29.871467, 49.888889], [29.867235, 49.890128], [29.874346, 49.897236], [29.877668, 49.893066], [29.885614, 49.894005], [29.88794, 49.892109], [29.894652, 49.89198], [29.894991, 49.895897], [29.891189, 49.897263], [29.89933, 49.905747], [29.944063, 49.933603], [29.955021, 49.937826], [29.963875, 49.938169], [29.97014, 49.940622], [29.984052, 49.953707], [29.979623, 49.962645], [29.980662, 49.968226], [29.96234, 49.98028], [29.954077, 49.983425], [29.936852, 49.995373], [29.936397, 50.004039], [29.925642, 50.003295], [29.925626, 50.010554], [29.929735, 50.018688], [29.935989, 50.022125], [29.927056, 50.038397], [29.957218, 50.05162], [29.973736, 50.041133], [29.994472, 50.035183], [30.060369, 50.023846], [30.072632, 50.01714], [30.076691, 50.017872], [30.079638, 50.014355], [30.094325, 50.015271], [30.100043, 50.022615], [30.094919, 50.026578], [30.098316, 50.048353], [30.097017, 50.050863], [30.104151, 50.066709], [30.098467, 50.075597], [30.128843, 50.100573], [30.146776, 50.106387], [30.18421, 50.10675], [30.179782, 50.110801], [30.198711, 50.1182], [30.208461, 50.105108], [30.217372, 50.104709], [30.22368, 50.106971], [30.235139, 50.090159], [30.25187, 50.077163], [30.27603, 50.054664], [30.285943, 50.048294], [30.273827, 50.043555], [30.28245, 50.035415], [30.291592, 50.021657], [30.301468, 50.014804], [30.313395, 50.018315], [30.345148, 49.99833], [30.339218, 49.994673], [30.369231, 49.985787], [30.382712, 49.987294], [30.392882, 49.990872], [30.404508, 49.986973], [30.416621, 49.990094], [30.442402, 49.991064], [30.453779, 49.983461], [30.466543, 49.982691], [30.479964, 49.969751], [30.487702, 49.966802], [30.494146, 49.935678], [30.514507, 49.936949], [30.513222, 49.938974], [30.524216, 49.941683], [30.52836, 49.934622], [30.538492, 49.936556], [30.530639, 49.91617], [30.544267, 49.913004], [30.563952, 49.905088], [30.587107, 49.889547], [30.5867, 49.886381], [30.582338, 49.883562], [30.581247, 49.879949], [30.576326, 49.876901], [30.575942, 49.873499], [30.572008, 49.870168], [30.57056, 49.865701], [30.572089, 49.862508], [30.539895, 49.860753], [30.541807, 49.825749], [30.656066, 49.837072], [30.664174, 49.835783], [30.668605, 49.832529], [30.673461, 49.831415], [30.715798, 49.825084], [30.71762, 49.789556], [30.715691, 49.769022], [30.716739, 49.738012], [30.707084, 49.738255], [30.719473, 49.719254], [30.722991, 49.70852], [30.725142, 49.706647], [30.736235, 49.706563], [30.736052, 49.704465], [30.741746, 49.699181], [30.744917, 49.693688], [30.743225, 49.690034], [30.736545, 49.686276], [30.7291, 49.656391], [30.70033, 49.657016], [30.698899, 49.638797], [30.70435, 49.636856], [30.708894, 49.632763], [30.718745, 49.632518], [30.736215, 49.625583], [30.734623, 49.621284], [30.722044, 49.604255], [30.713014, 49.601065], [30.712316, 49.607306], [30.707041, 49.609782], [30.704252, 49.607718], [30.704929, 49.60501], [30.698679, 49.599654], [30.687109, 49.594981], [30.686544, 49.599913], [30.685081, 49.600527], [30.676819, 49.600505], [30.674625, 49.597952], [30.669405, 49.596488], [30.665191, 49.601718], [30.648233, 49.601363], [30.643791, 49.597116], [30.640207, 49.596834], [30.637089, 49.599691], [30.6307, 49.59966], [30.620556, 49.606172], [30.619921, 49.610174], [30.622077, 49.616872], [30.620169, 49.62272], [30.617934, 49.61926], [30.62019, 49.616705], [30.617467, 49.61181], [30.619057, 49.604616], [30.626368, 49.597841], [30.626045, 49.592542], [30.650228, 49.582544], [30.659324, 49.582143], [30.660745, 49.580644], [30.652205, 49.571405], [30.658663, 49.565954], [30.66054, 49.55945], [30.665952, 49.554212], [30.684248, 49.542928], [30.68903, 49.537225], [30.693451, 49.525301], [30.701075, 49.511774], [30.716089, 49.501005], [30.721983, 49.490221], [30.735845, 49.488686], [30.742582, 49.472901], [30.747918, 49.467958], [30.760835, 49.467421], [30.763215, 49.464376], [30.762952, 49.461515], [30.755967, 49.456347], [30.76185, 49.455028], [30.7685, 49.464009], [30.792642, 49.455869], [30.783082, 49.444213], [30.789542, 49.443466], [30.79686, 49.444818], [30.796361, 49.436235], [30.900429, 49.440248], [30.9006, 49.436499], [30.91483, 49.437017], [30.914842, 49.432396], [30.923826, 49.433025], [30.91867, 49.426839], [30.926606, 49.417365], [30.920058, 49.41537], [30.935149, 49.406046], [30.933326, 49.394496], [30.927579, 49.392108], [30.930914, 49.381072], [30.925905, 49.379119], [30.922835, 49.381922], [30.920321, 49.381213], [30.909168, 49.359068], [30.896776, 49.362695], [30.887135, 49.363115], [30.879597, 49.361002], [30.876435, 49.357214], [30.866064, 49.351083], [30.857949, 49.354257], [30.840494, 49.354016], [30.834232, 49.351819], [30.820422, 49.355664], [30.79853, 49.354088], [30.779891, 49.345031], [30.748735, 49.344642], [30.729602, 49.332255], [30.71536, 49.338873], [30.70901, 49.334895], [30.676367, 49.354918], [30.67252, 49.354552], [30.668415, 49.356532], [30.662403, 49.354014], [30.660241, 49.357619], [30.661235, 49.360732], [30.637168, 49.355727], [30.605902, 49.370752], [30.583537, 49.349664], [30.57001, 49.354284], [30.559373, 49.345722], [30.556062, 49.340969], [30.545901, 49.335774], [30.544703, 49.331448], [30.538627, 49.331478], [30.5368, 49.327473], [30.525374, 49.329079], [30.517123, 49.32692], [30.472119, 49.365544], [30.448977, 49.355876], [30.446078, 49.352943], [30.437716, 49.349284], [30.441202, 49.33588], [30.438845, 49.3325], [30.412317, 49.330145], [30.417183, 49.31761], [30.420221, 49.302347], [30.398481, 49.303015], [30.388, 49.273687], [30.385184, 49.260976], [30.375202, 49.236801], [30.370539, 49.237106], [30.373249, 49.241615], [30.366024, 49.246372], [30.367944, 49.255665], [30.33229, 49.25956], [30.256994, 49.271995], [30.256062, 49.268439], [30.189881, 49.275885], [30.199283, 49.32775], [30.148686, 49.326457], [30.147549, 49.33501], [30.13639, 49.330168], [30.13268, 49.313822], [30.128079, 49.312887], [30.124787, 49.309469], [30.120852, 49.310358], [30.119538, 49.308889], [30.113816, 49.308844], [30.106595, 49.30274], [30.120745, 49.296221], [30.120969, 49.291986], [30.123279, 49.289923], [30.123476, 49.282022], [30.119442, 49.279515], [30.114002, 49.271359], [30.103355, 49.274102], [30.08919, 49.286313], [30.086495, 49.294835], [30.082858, 49.298772], [30.086552, 49.312203], [30.080761, 49.31693], [30.077623, 49.322718], [30.066204, 49.326131], [30.026656, 49.331986], [30.019038, 49.328313], [30.010718, 49.326997], [30.006621, 49.316322], [29.982753, 49.316116], [29.960196, 49.307815], [29.947774, 49.312271], [29.94517, 49.300368], [29.953592, 49.289107], [29.95533, 49.282435], [29.955027, 49.258662], [29.952626, 49.250468], [29.932219, 49.247068], [29.931552, 49.24357], [29.921952, 49.232099], [29.915908, 49.227545], [29.903292, 49.222894], [29.903539, 49.220995], [29.909463, 49.21734], [29.893936, 49.208714], [29.896841, 49.204732], [29.879974, 49.201455], [29.877006, 49.200379], [29.876848, 49.198884]]]]}}, {"type": "Feature", "properties": {"NAME": "Вишгородський район", "NAME_SHORT": "Вишгородський", "ADMIN_LVL": "6", "source": "slawomirmatuszak/ukrainian_geodata rayony.geojson (UA raions 2020)"}, "geometry": {"type": "MultiPolygon", "coordinates": [[[[30.528006, 50.564697], [30.521793, 50.573303], [30.518637, 50.575752], [30.513592, 50.576817], [30.493712, 50.56684], [30.487459, 50.568965], [30.484146, 50.567764], [30.485081, 50.569282], [30.481703, 50.572288], [30.464511, 50.571708], [30.46289, 50.584487], [30.44633, 50.585841], [30.370842, 50.586508], [30.370522, 50.573523], [30.339477, 50.573888], [30.315286, 50.571336], [30.303342, 50.580545], [30.29297, 50.58468], [30.285968, 50.589387], [30.283638, 50.599042], [30.293667, 50.604287], [30.313031, 50.602613], [30.320693, 50.599156], [30.325465, 50.598718], [30.329491, 50.599184], [30.330104, 50.601923], [30.328255, 50.604448], [30.316461, 50.607961], [30.301172, 50.609918], [30.298998, 50.612065], [30.297348, 50.619683], [30.290285, 50.620885], [30.284268, 50.625337], [30.280974, 50.633943], [30.275012, 50.640267], [30.283195, 50.643874], [30.284253, 50.64568], [30.280487, 50.655624], [30.282636, 50.657672], [30.282514, 50.663235], [30.296417, 50.6682], [30.303698, 50.677027], [30.303957, 50.681707], [30.31067, 50.686301], [30.264395, 50.706582], [30.264387, 50.714436], [30.217667, 50.718722], [30.19678, 50.712859], [30.182879, 50.713253], [30.171046, 50.710269], [30.149682, 50.709508], [30.106685, 50.715435], [30.104023, 50.707115], [30.11406, 50.705284], [30.110318, 50.691105], [30.096167, 50.691525], [30.095675, 50.695347], [30.080477, 50.699089], [30.078891, 50.707115], [30.075048, 50.708107], [30.043435, 50.729599], [30.05785, 50.741295], [30.057854, 50.743515], [30.047245, 50.754807], [30.049871, 50.763889], [30.061904, 50.770271], [30.059831, 50.77617], [30.05717, 50.777096], [30.052581, 50.776199], [30.049751, 50.772793], [30.023131, 50.772514], [30.019007, 50.770519], [29.998915, 50.771076], [29.981503, 50.776504], [29.971772, 50.775451], [29.960026, 50.75484], [29.923075, 50.754435], [29.916945, 50.759554], [29.916728, 50.772684], [29.918275, 50.774898], [29.909854, 50.778639], [29.904559, 50.779173], [29.903324, 50.778627], [29.90434, 50.76943], [29.908311, 50.763212], [29.906395, 50.758867], [29.908348, 50.753706], [29.903929, 50.748259], [29.897707, 50.750902], [29.886411, 50.770613], [29.892621, 50.77368], [29.898278, 50.780584], [29.876127, 50.789267], [29.87308, 50.79492], [29.847401, 50.788198], [29.846422, 50.789694], [29.836437, 50.786314], [29.829251, 50.781518], [29.825564, 50.77636], [29.820681, 50.774297], [29.811181, 50.773049], [29.802103, 50.774732], [29.794564, 50.772553], [29.780304, 50.771481], [29.771417, 50.773212], [29.768613, 50.772449], [29.765007, 50.768226], [29.753533, 50.766311], [29.64934, 50.763636], [29.609557, 50.770895], [29.609575, 50.78174], [29.606391, 50.781152], [29.599603, 50.784338], [29.592964, 50.778459], [29.587594, 50.776239], [29.576202, 50.7773], [29.572572, 50.779783], [29.570438, 50.776853], [29.572858, 50.775118], [29.569928, 50.771765], [29.558288, 50.772565], [29.554332, 50.771157], [29.545232, 50.773106], [29.545022, 50.77541], [29.543574, 50.775822], [29.536054, 50.775662], [29.53263, 50.775258], [29.529881, 50.77213], [29.517595, 50.771657], [29.505044, 50.765248], [29.495612, 50.769196], [29.490956, 50.768703], [29.488552, 50.770557], [29.476055, 50.772167], [29.475567, 50.773765], [29.477509, 50.774067], [29.510623, 50.774815], [29.511534, 50.776669], [29.509651, 50.783677], [29.506079, 50.784909], [29.523443, 50.791115], [29.520432, 50.793297], [29.516777, 50.792786], [29.497958, 50.800385], [29.491777, 50.805859], [29.494695, 50.808942], [29.490039, 50.811543], [29.493251, 50.814065], [29.50394, 50.818547], [29.537147, 50.813287], [29.549747, 50.813246], [29.543201, 50.829023], [29.534572, 50.830347], [29.529359, 50.824533], [29.499075, 50.838861], [29.521634, 50.869623], [29.514626, 50.879496], [29.500904, 50.88746], [29.489876, 50.888941], [29.471039, 50.902937], [29.47457, 50.914064], [29.467511, 50.925574], [29.435997, 50.945497], [29.412196, 50.948675], [29.413387, 50.980078], [29.412242, 50.980155], [29.413133, 50.985324], [29.440263, 50.987391], [29.47433, 50.978659], [29.466618, 50.986655], [29.465446, 51.002987], [29.468189, 51.010033], [29.464096, 51.017235], [29.469193, 51.020668], [29.475411, 51.029709], [29.472447, 51.030537], [29.511063, 51.06051], [29.497066, 51.071156], [29.48287, 51.076856], [29.467246, 51.086907], [29.45957, 51.088387], [29.436443, 51.113065], [29.429053, 51.12365], [29.349436, 51.16], [29.330328, 51.15712], [29.329305, 51.125175], [29.321584, 51.125973], [29.31694, 51.131325], [29.30316, 51.162819], [29.302778, 51.167911], [29.290194, 51.203369], [29.281062, 51.223263], [29.279485, 51.230733], [29.266636, 51.264119], [29.301624, 51.27342], [29.304184, 51.271223], [29.306908, 51.271238], [29.310034, 51.274683], [29.321387, 51.274614], [29.332468, 51.277952], [29.333889, 51.277212], [29.329372, 51.271231], [29.337057, 51.270189], [29.354304, 51.274572], [29.38544, 51.308585], [29.385818, 51.311019], [29.39648, 51.32132], [29.392429, 51.345375], [29.393466, 51.379883], [29.357637, 51.376019], [29.357138, 51.387745], [29.366755, 51.390965], [29.371433, 51.398403], [29.375385, 51.400978], [29.394226, 51.40878], [29.410913, 51.413121], [29.424114, 51.413869], [29.481723, 51.397589], [29.500531, 51.395476], [29.506822, 51.412833], [29.513564, 51.423198], [29.520503, 51.421733], [29.518237, 51.427802], [29.521811, 51.436549], [29.515005, 51.44445], [29.514667, 51.446845], [29.520826, 51.454639], [29.531949, 51.463314], [29.532536, 51.471089], [29.537114, 51.481194], [29.542001, 51.480992], [29.574987, 51.462372], [29.581186, 51.460842], [29.608494, 51.470895], [29.606346, 51.47482], [29.609043, 51.481874], [29.607507, 51.49199], [29.616815, 51.492605], [29.622453, 51.495023], [29.626445, 51.50162], [29.631816, 51.505556], [29.634795, 51.50564], [29.640647, 51.498789], [29.644826, 51.499693], [29.65475, 51.505869], [29.668692, 51.502287], [29.670991, 51.510653], [29.688483, 51.516647], [29.69407, 51.516609], [29.708455, 51.521037], [29.707725, 51.525886], [29.711001, 51.526607], [29.736806, 51.530423], [29.743202, 51.512435], [29.738157, 51.5093], [29.744185, 51.498668], [29.74505, 51.494274], [29.726272, 51.490966], [29.734271, 51.477294], [29.733953, 51.469184], [29.741453, 51.461856], [29.739872, 51.459411], [29.762058, 51.450557], [29.793332, 51.442436], [29.790727, 51.458316], [29.808849, 51.459747], [29.814193, 51.449531], [29.843293, 51.456803], [29.850117, 51.448983], [29.855662, 51.449425], [29.874815, 51.443615], [29.878302, 51.446743], [29.875923, 51.456253], [29.884658, 51.462915], [29.887551, 51.471193], [29.890405, 51.471956], [29.881223, 51.476152], [29.886592, 51.477655], [29.894183, 51.484636], [29.9006, 51.483812], [29.906818, 51.485986], [29.922826, 51.48749], [29.924478, 51.48979], [29.926515, 51.489893], [29.946899, 51.482951], [29.952274, 51.474146], [29.960676, 51.471953], [29.968636, 51.474234], [29.972523, 51.483401], [29.975605, 51.485556], [29.980993, 51.48609], [29.990734, 51.481398], [30.002247, 51.487434], [30.010506, 51.489715], [30.012135, 51.491268], [30.011763, 51.49469], [30.017313, 51.496063], [30.013973, 51.503269], [30.015271, 51.50457], [30.032517, 51.503398], [30.049368, 51.497554], [30.058916, 51.496777], [30.063114, 51.498425], [30.075136, 51.496102], [30.079843, 51.496773], [30.118306, 51.487687], [30.125789, 51.489819], [30.118949, 51.504968], [30.125945, 51.506994], [30.130595, 51.506212], [30.137094, 51.499639], [30.151322, 51.492017], [30.162293, 51.488977], [30.166492, 51.509], [30.178699, 51.513216], [30.213993, 51.493556], [30.214159, 51.491866], [30.245248, 51.485385], [30.270871, 51.469359], [30.281697, 51.46387], [30.288248, 51.463107], [30.298915, 51.455771], [30.309251, 51.444388], [30.316802, 51.440989], [30.322207, 51.43426], [30.333086, 51.425784], [30.344445, 51.42433], [30.359271, 51.379462], [30.356682, 51.376898], [30.323535, 51.361715], [30.333824, 51.353258], [30.348386, 51.348425], [30.398788, 51.311952], [30.421406, 51.304469], [30.441696, 51.308375], [30.462489, 51.30646], [30.459925, 51.29954], [30.460568, 51.297404], [30.467219, 51.290965], [30.460762, 51.285155], [30.453872, 51.281993], [30.455412, 51.276053], [30.457163, 51.275054], [30.464325, 51.274676], [30.506088, 51.280558], [30.515663, 51.27589], [30.521806, 51.270469], [30.537352, 51.264442], [30.539884, 51.262645], [30.539864, 51.258281], [30.542732, 51.255687], [30.555292, 51.250293], [30.55866, 51.236545], [30.55453, 51.23049], [30.546617, 51.229518], [30.530258, 51.235259], [30.510746, 51.232074], [30.502855, 51.225821], [30.530349, 51.204016], [30.526633, 51.19716], [30.515467, 51.189691], [30.515203, 51.187772], [30.520841, 51.184831], [30.535479, 51.184335], [30.539951, 51.180372], [30.533636, 51.175497], [30.525562, 51.173982], [30.501938, 51.176389], [30.490568, 51.166811], [30.49179, 51.138676], [30.493575, 51.132729], [30.498476, 51.126691], [30.509501, 51.121247], [30.517592, 51.111363], [30.516826, 51.10294], [30.490103, 51.097805], [30.486501, 51.094577], [30.486867, 51.090057], [30.505399, 51.077442], [30.509684, 51.072506], [30.50848, 51.065418], [30.504355, 51.059494], [30.496012, 51.052753], [30.494021, 51.048873], [30.501296, 51.0326], [30.502431, 51.021685], [30.601729, 51.026635], [30.603698, 51.010052], [30.623948, 51.009343], [30.641012, 51.002789], [30.650427, 50.985551], [30.646415, 50.96782], [30.647071, 50.963444], [30.661244, 50.951604], [30.669146, 50.936557], [30.669283, 50.931419], [30.683438, 50.90094], [30.695143, 50.902736], [30.69748, 50.900615], [30.714364, 50.899181], [30.716021, 50.89624], [30.723929, 50.894227], [30.732409, 50.89515], [30.737602, 50.886681], [30.755668, 50.880425], [30.756563, 50.878377], [30.769604, 50.874783], [30.771107, 50.873383], [30.766886, 50.871796], [30.77566, 50.862305], [30.775071, 50.855191], [30.771075, 50.852845], [30.770959, 50.851311], [30.779323, 50.831882], [30.776356, 50.828518], [30.767422, 50.825679], [30.770834, 50.818859], [30.769738, 50.81443], [30.755702, 50.810108], [30.744797, 50.818519], [30.731453, 50.816443], [30.736662, 50.807421], [30.742354, 50.807295], [30.744626, 50.805186], [30.742989, 50.794943], [30.746262, 50.791377], [30.74317, 50.786955], [30.736317, 50.784934], [30.736363, 50.78176], [30.737942, 50.780333], [30.735556, 50.776049], [30.739471, 50.770628], [30.746734, 50.773718], [30.750709, 50.773695], [30.739338, 50.765303], [30.722169, 50.740617], [30.713038, 50.731058], [30.716193, 50.730367], [30.71647, 50.727323], [30.7095, 50.722883], [30.697696, 50.721501], [30.68015, 50.715603], [30.674447, 50.715119], [30.673425, 50.713726], [30.677805, 50.68916], [30.67812, 50.672401], [30.69921, 50.661534], [30.699668, 50.657471], [30.672473, 50.653777], [30.669328, 50.649829], [30.669467, 50.645786], [30.660857, 50.643855], [30.656424, 50.633304], [30.648666, 50.621859], [30.64698, 50.611429], [30.634304, 50.611803], [30.627077, 50.609896], [30.626225, 50.607592], [30.628771, 50.603689], [30.6418, 50.600085], [30.643434, 50.59783], [30.641082, 50.595145], [30.612389, 50.586118], [30.596518, 50.592466], [30.576118, 50.58545], [30.573624, 50.582769], [30.574995, 50.579427], [30.589328, 50.575986], [30.592996, 50.573503], [30.593345, 50.57134], [30.579045, 50.560703], [30.573413, 50.560345], [30.563747, 50.562908], [30.558537, 50.560642], [30.557605, 50.558342], [30.56943, 50.549954], [30.569459, 50.546417], [30.562612, 50.545784], [30.543775, 50.550987], [30.536288, 50.550122], [30.536536, 50.556122], [30.528006, 50.564697]]], [[[30.778442, 51.538898], [30.778161, 51.512271], [30.698024, 51.52091], [30.671255, 51.521158], [30.664608, 51.518914], [30.661498, 51.521916], [30.655873, 51.52226], [30.653857, 51.52472], [30.657593, 51.5267], [30.666233, 51.52783], [30.669436, 51.531214], [30.687569, 51.532087], [30.692047, 51.529844], [30.697305, 51.530596], [30.702151, 51.554014], [30.734959, 51.54837], [30.735227, 51.542995], [30.737251, 51.541999], [30.778442, 51.538898]]]]}}, {"type": "Feature", "properties": {"NAME": "Обухівський район", "NAME_SHORT": "Обухівський", "ADMIN_LVL": "6", "source": "slawomirmatuszak/ukrainian_geodata rayony.geojson (UA raions 2020)"}, "geometry": {"type": "MultiPolygon", "coordinates": [[[[31.006543, 49.448048], [31.00628, 49.433266], [30.993354, 49.422828], [30.963399, 49.42416], [30.926606, 49.417365], [30.91867, 49.426839], [30.923826, 49.433025], [30.914842, 49.432396], [30.91483, 49.437017], [30.9006, 49.436499], [30.900429, 49.440248], [30.796361, 49.436235], [30.79686, 49.444818], [30.789542, 49.443466], [30.783082, 49.444213], [30.792642, 49.455869], [30.7685, 49.464009], [30.76185, 49.455028], [30.755967, 49.456347], [30.762952, 49.461515], [30.763215, 49.464376], [30.760835, 49.467421], [30.747918, 49.467958], [30.742582, 49.472901], [30.735845, 49.488686], [30.721983, 49.490221], [30.716089, 49.501005], [30.701075, 49.511774], [30.693451, 49.525301], [30.68903, 49.537225], [30.684248, 49.542928], [30.665952, 49.554212], [30.66054, 49.55945], [30.658663, 49.565954], [30.652205, 49.571405], [30.660745, 49.580644], [30.659324, 49.582143], [30.650228, 49.582544], [30.626045, 49.592542], [30.626733, 49.597166], [30.619057, 49.604616], [30.617539, 49.610326], [30.62019, 49.616705], [30.617934, 49.61926], [30.620169, 49.62272], [30.622077, 49.616872], [30.619921, 49.610174], [30.620556, 49.606172], [30.6307, 49.59966], [30.637089, 49.599691], [30.640207, 49.596834], [30.643791, 49.597116], [30.648233, 49.601363], [30.665191, 49.601718], [30.669405, 49.596488], [30.674625, 49.597952], [30.676819, 49.600505], [30.685081, 49.600527], [30.686544, 49.599913], [30.687109, 49.594981], [30.698679, 49.599654], [30.704929, 49.60501], [30.704252, 49.607718], [30.707041, 49.609782], [30.712316, 49.607306], [30.713014, 49.601065], [30.722044, 49.604255], [30.734623, 49.621284], [30.736215, 49.625583], [30.718745, 49.632518], [30.708894, 49.632763], [30.70435, 49.636856], [30.698899, 49.638797], [30.70033, 49.657016], [30.7291, 49.656391], [30.736545, 49.686276], [30.743225, 49.690034], [30.744917, 49.693688], [30.741746, 49.699181], [30.736052, 49.704465], [30.736235, 49.706563], [30.725142, 49.706647], [30.722991, 49.70852], [30.719473, 49.719254], [30.707084, 49.738255], [30.716739, 49.738012], [30.715691, 49.769022], [30.71762, 49.789556], [30.716263, 49.824633], [30.673461, 49.831415], [30.668605, 49.832529], [30.664174, 49.835783], [30.656066, 49.837072], [30.541807, 49.825749], [30.539895, 49.860753], [30.572089, 49.862508], [30.57056, 49.865701], [30.572008, 49.870168], [30.575942, 49.873499], [30.576326, 49.876901], [30.581247, 49.879949], [30.582338, 49.883562], [30.5867, 49.886381], [30.587107, 49.889547], [30.563952, 49.905088], [30.544267, 49.913004], [30.530639, 49.91617], [30.538492, 49.936556], [30.52836, 49.934622], [30.524216, 49.941683], [30.513222, 49.938974], [30.514507, 49.936949], [30.494146, 49.935678], [30.487702, 49.966802], [30.479964, 49.969751], [30.466543, 49.982691], [30.453779, 49.983461], [30.442402, 49.991064], [30.416621, 49.990094], [30.404508, 49.986973], [30.392882, 49.990872], [30.382712, 49.987294], [30.369231, 49.985787], [30.339218, 49.994673], [30.345148, 49.99833], [30.313395, 50.018315], [30.301468, 50.014804], [30.291592, 50.021657], [30.28245, 50.035415], [30.273827, 50.043555], [30.285943, 50.048294], [30.27603, 50.054664], [30.25187, 50.077163], [30.235139, 50.090159], [30.22368, 50.106971], [30.217372, 50.104709], [30.208461, 50.105108], [30.198711, 50.1182], [30.219346, 50.128008], [30.220014, 50.131332], [30.218794, 50.134721], [30.205652, 50.140029], [30.206049, 50.146769], [30.200345, 50.148324], [30.205189, 50.150139], [30.214302, 50.150087], [30.239456, 50.145773], [30.244542, 50.147513], [30.253283, 50.155727], [30.239595, 50.164993], [30.240392, 50.180325], [30.231342, 50.177339], [30.227841, 50.180962], [30.208117, 50.179597], [30.208286, 50.188722], [30.221133, 50.189694], [30.234642, 50.201528], [30.228815, 50.208112], [30.231891, 50.215239], [30.229657, 50.218439], [30.234678, 50.216607], [30.241637, 50.221447], [30.251777, 50.215796], [30.246104, 50.211099], [30.267825, 50.196195], [30.283509, 50.188281], [30.288702, 50.188346], [30.290564, 50.190223], [30.296633, 50.188048], [30.289961, 50.192584], [30.298356, 50.199046], [30.301812, 50.199775], [30.30782, 50.197326], [30.309769, 50.199298], [30.307152, 50.20167], [30.309087, 50.217181], [30.307385, 50.219181], [30.293972, 50.224909], [30.295374, 50.226775], [30.321127, 50.224892], [30.322029, 50.233806], [30.326585, 50.233707], [30.326228, 50.225952], [30.338544, 50.220215], [30.335353, 50.21701], [30.327994, 50.220131], [30.329211, 50.213886], [30.333657, 50.212704], [30.332329, 50.208633], [30.327088, 50.209522], [30.327982, 50.206015], [30.324896, 50.204413], [30.326224, 50.202666], [30.325283, 50.200614], [30.31972, 50.199408], [30.340635, 50.195529], [30.336979, 50.190337], [30.336326, 50.184844], [30.33411, 50.182944], [30.337312, 50.180182], [30.339206, 50.174537], [30.342178, 50.172751], [30.352316, 50.171336], [30.352281, 50.175105], [30.361747, 50.175338], [30.370618, 50.168731], [30.375033, 50.17033], [30.380127, 50.166653], [30.390895, 50.167976], [30.390448, 50.196973], [30.416456, 50.197353], [30.414055, 50.203527], [30.425433, 50.214211], [30.39998, 50.22425], [30.404851, 50.22946], [30.400025, 50.231551], [30.39698, 50.228972], [30.391974, 50.230564], [30.386043, 50.240504], [30.390213, 50.243975], [30.397755, 50.244373], [30.401843, 50.252052], [30.386283, 50.256668], [30.39538, 50.266649], [30.384869, 50.272795], [30.391778, 50.277602], [30.388383, 50.283151], [30.397915, 50.283857], [30.391772, 50.293417], [30.393614, 50.29421], [30.401169, 50.291948], [30.4079, 50.296324], [30.426573, 50.295412], [30.42581, 50.303137], [30.438597, 50.30279], [30.437956, 50.306955], [30.421971, 50.308609], [30.416954, 50.319542], [30.433291, 50.319916], [30.428538, 50.325087], [30.438168, 50.334521], [30.448077, 50.334957], [30.457957, 50.342379], [30.474498, 50.341693], [30.474589, 50.339671], [30.478145, 50.339439], [30.477715, 50.337391], [30.474997, 50.336745], [30.47516, 50.333355], [30.485191, 50.333945], [30.48598, 50.336085], [30.497444, 50.332543], [30.488377, 50.326767], [30.496205, 50.321874], [30.50916, 50.326171], [30.516531, 50.320995], [30.53363, 50.317114], [30.531702, 50.302263], [30.534002, 50.301435], [30.534039, 50.297599], [30.527571, 50.290673], [30.546416, 50.291036], [30.547928, 50.282626], [30.54287, 50.276269], [30.553618, 50.269952], [30.553664, 50.263466], [30.551112, 50.261892], [30.553106, 50.258941], [30.574421, 50.259481], [30.578513, 50.255903], [30.586655, 50.243871], [30.591094, 50.229028], [30.591363, 50.221828], [30.589382, 50.215345], [30.592506, 50.212989], [30.643757, 50.225864], [30.636908, 50.235336], [30.645484, 50.237352], [30.646266, 50.239536], [30.633715, 50.246935], [30.632794, 50.251157], [30.625332, 50.25713], [30.626443, 50.263103], [30.617286, 50.265762], [30.616284, 50.27187], [30.610859, 50.275074], [30.610429, 50.280729], [30.642835, 50.280165], [30.639121, 50.273569], [30.644473, 50.267352], [30.6561, 50.265788], [30.657448, 50.266767], [30.678012, 50.259385], [30.691573, 50.261258], [30.704355, 50.255864], [30.711376, 50.250978], [30.720492, 50.23763], [30.710482, 50.227483], [30.707955, 50.222924], [30.707898, 50.219091], [30.714457, 50.215226], [30.74459, 50.211255], [30.750202, 50.208619], [30.750091, 50.204106], [30.742323, 50.192609], [30.743011, 50.189981], [30.749753, 50.183839], [30.759351, 50.180108], [30.764844, 50.175061], [30.77071, 50.163358], [30.774076, 50.160314], [30.78479, 50.158757], [30.796737, 50.163648], [30.800523, 50.16372], [30.816393, 50.156972], [30.817578, 50.152173], [30.824189, 50.148568], [30.834859, 50.149698], [30.841407, 50.14749], [30.848924, 50.150583], [30.857354, 50.149496], [30.868525, 50.142965], [30.881578, 50.141234], [30.885216, 50.135496], [30.896433, 50.129583], [30.915379, 50.108885], [30.922366, 50.103785], [30.92308, 50.094668], [30.927816, 50.087549], [30.948194, 50.081591], [30.957696, 50.075796], [30.963704, 50.066939], [30.962352, 50.058985], [30.963582, 50.054434], [30.972248, 50.045584], [30.998363, 50.030371], [31.0113, 50.020155], [31.046975, 50.000082], [31.069007, 49.975069], [31.085038, 49.98052], [31.106103, 49.984161], [31.126265, 49.986415], [31.130967, 49.985671], [31.135741, 49.983054], [31.139208, 49.973888], [31.144507, 49.968421], [31.157545, 49.959144], [31.181319, 49.950885], [31.225895, 49.940441], [31.256479, 49.935921], [31.271207, 49.940964], [31.280691, 49.9482], [31.283694, 49.96494], [31.288721, 49.974004], [31.295445, 49.976701], [31.299273, 49.975412], [31.309719, 49.980054], [31.316268, 49.975839], [31.292357, 49.961435], [31.290612, 49.956811], [31.295705, 49.95738], [31.312216, 49.965085], [31.33579, 49.955114], [31.350702, 49.95065], [31.337064, 49.944757], [31.337468, 49.938424], [31.350909, 49.936418], [31.37837, 49.910436], [31.38083, 49.907247], [31.374038, 49.898675], [31.369821, 49.898725], [31.368038, 49.896604], [31.348663, 49.895936], [31.316272, 49.892018], [31.315056, 49.88834], [31.292358, 49.883591], [31.2623, 49.858707], [31.252475, 49.865314], [31.244867, 49.865855], [31.207139, 49.849806], [31.221043, 49.83296], [31.208853, 49.813695], [31.20319, 49.812337], [31.206198, 49.809205], [31.189529, 49.78959], [31.215366, 49.777227], [31.208632, 49.761674], [31.212611, 49.756448], [31.209111, 49.755609], [31.217872, 49.742538], [31.217539, 49.737156], [31.220855, 49.733524], [31.213356, 49.731342], [31.202383, 49.710518], [31.199202, 49.701424], [31.208522, 49.69939], [31.220233, 49.693787], [31.213506, 49.685645], [31.208724, 49.687774], [31.20926, 49.689368], [31.205829, 49.692019], [31.200295, 49.690234], [31.201745, 49.686507], [31.198184, 49.684325], [31.202637, 49.676257], [31.202007, 49.674811], [31.157137, 49.632452], [31.143428, 49.612969], [31.137732, 49.603364], [31.138114, 49.60088], [31.130397, 49.592149], [31.127567, 49.582856], [31.149752, 49.581723], [31.1397, 49.574181], [31.138567, 49.571103], [31.145546, 49.570527], [31.149025, 49.568467], [31.153352, 49.556039], [31.143632, 49.55745], [31.138902, 49.551555], [31.121132, 49.560135], [31.117981, 49.557846], [31.110603, 49.556854], [31.107018, 49.549068], [31.101063, 49.547832], [31.099498, 49.545753], [31.09916, 49.540928], [31.104001, 49.531742], [31.099576, 49.528892], [31.098716, 49.525824], [31.100259, 49.5236], [31.094382, 49.517272], [31.094472, 49.515006], [31.096762, 49.513495], [31.093369, 49.511317], [31.093636, 49.50524], [31.097555, 49.502757], [31.093851, 49.50249], [31.094561, 49.497832], [31.087946, 49.496184], [31.08647, 49.491267], [31.084259, 49.489554], [31.06539, 49.483587], [31.060558, 49.479284], [31.04814, 49.478288], [31.040041, 49.472448], [31.038981, 49.470664], [31.039942, 49.467653], [31.044286, 49.462003], [31.043348, 49.460214], [31.045749, 49.456667], [31.037465, 49.45931], [31.032574, 49.471224], [31.029823, 49.471937], [31.006176, 49.450745], [31.006543, 49.448048]]]]}}, {"type": "Feature", "properties": {"NAME": "Броварський район", "NAME_SHORT": "Броварський", "ADMIN_LVL": "6", "source": "slawomirmatuszak/ukrainian_geodata rayony.geojson (UA raions 2020)"}, "geometry": {"type": "MultiPolygon", "coordinates": [[[[31.668775, 50.320008], [31.672863, 50.306923], [31.671822, 50.294559], [31.672859, 50.286407], [31.675888, 50.27977], [31.645899, 50.279609], [31.645752, 50.273216], [31.638094, 50.271239], [31.629324, 50.263343], [31.603983, 50.256816], [31.601412, 50.254588], [31.581793, 50.26417], [31.587642, 50.279875], [31.579841, 50.282599], [31.587649, 50.293753], [31.561396, 50.30429], [31.549655, 50.289137], [31.536935, 50.276556], [31.513129, 50.274999], [31.50706, 50.269804], [31.50703, 50.257905], [31.495883, 50.251704], [31.49589, 50.248576], [31.499331, 50.243172], [31.488916, 50.238736], [31.486275, 50.23277], [31.442893, 50.246429], [31.419865, 50.259094], [31.415749, 50.255199], [31.394902, 50.271564], [31.379926, 50.278434], [31.362227, 50.267181], [31.357787, 50.260554], [31.379717, 50.246439], [31.381459, 50.225558], [31.391086, 50.225676], [31.398252, 50.219531], [31.402379, 50.213641], [31.418114, 50.186842], [31.420429, 50.173411], [31.41887, 50.170764], [31.403474, 50.165839], [31.396426, 50.165864], [31.379547, 50.173566], [31.371727, 50.175519], [31.347128, 50.175851], [31.271964, 50.167927], [31.271878, 50.188572], [31.212393, 50.188941], [31.188069, 50.198875], [31.187902, 50.203307], [31.190612, 50.206058], [31.210531, 50.247982], [31.206584, 50.284788], [31.1866, 50.294984], [31.163349, 50.296589], [31.155199, 50.299096], [31.155543, 50.306214], [31.150205, 50.306466], [31.146542, 50.31036], [31.145335, 50.328237], [31.143203, 50.336725], [31.14998, 50.339883], [31.150503, 50.343168], [31.160267, 50.345643], [31.168543, 50.355356], [31.176346, 50.361719], [31.210802, 50.360468], [31.201817, 50.383959], [31.21422, 50.38185], [31.220175, 50.389587], [31.213652, 50.390952], [31.217627, 50.397651], [31.211831, 50.401126], [31.218306, 50.407089], [31.211516, 50.410694], [31.215168, 50.414024], [31.208217, 50.418258], [31.224623, 50.422432], [31.18417, 50.447555], [31.180323, 50.447704], [31.163483, 50.441589], [31.148446, 50.445136], [31.14217, 50.444384], [31.099097, 50.476512], [31.056595, 50.476344], [31.043902, 50.469964], [31.028603, 50.458429], [31.012204, 50.457056], [31.008231, 50.457754], [31.007028, 50.461893], [31.00031, 50.466703], [31.000408, 50.468458], [31.003961, 50.470178], [31.000665, 50.475904], [30.9899, 50.474824], [30.968438, 50.48171], [30.958462, 50.473889], [30.943547, 50.473999], [30.914807, 50.464348], [30.893986, 50.454971], [30.885251, 50.449066], [30.866035, 50.431883], [30.8264, 50.404073], [30.82125, 50.408208], [30.810331, 50.410646], [30.808567, 50.40954], [30.797714, 50.415536], [30.795713, 50.417568], [30.800845, 50.420796], [30.799739, 50.421597], [30.802565, 50.423479], [30.802081, 50.426216], [30.775959, 50.43898], [30.776604, 50.443186], [30.759055, 50.44871], [30.742627, 50.458463], [30.754732, 50.461598], [30.750718, 50.464196], [30.753475, 50.466364], [30.751765, 50.467516], [30.753875, 50.468952], [30.752495, 50.469793], [30.741305, 50.469041], [30.749987, 50.474562], [30.746309, 50.477577], [30.747917, 50.483698], [30.759713, 50.483588], [30.75432, 50.490323], [30.749151, 50.487656], [30.746561, 50.491965], [30.742551, 50.490359], [30.7376, 50.499018], [30.750271, 50.502295], [30.749004, 50.504451], [30.757807, 50.507819], [30.757253, 50.508822], [30.761999, 50.50902], [30.761022, 50.5123], [30.752438, 50.518732], [30.768823, 50.521925], [30.823384, 50.537166], [30.821426, 50.538787], [30.817554, 50.557812], [30.813954, 50.558267], [30.81447, 50.562767], [30.816968, 50.564808], [30.796418, 50.57048], [30.785443, 50.578433], [30.771054, 50.575584], [30.766466, 50.583933], [30.753218, 50.583358], [30.718216, 50.590885], [30.717237, 50.589962], [30.721482, 50.586021], [30.710162, 50.575542], [30.713982, 50.555655], [30.698989, 50.554629], [30.697437, 50.561975], [30.68117, 50.55576], [30.669977, 50.553781], [30.66411, 50.551515], [30.654068, 50.534184], [30.571825, 50.537831], [30.570021, 50.543637], [30.574164, 50.547154], [30.571403, 50.548546], [30.569459, 50.546417], [30.56943, 50.549954], [30.557605, 50.558342], [30.559192, 50.561325], [30.562307, 50.562775], [30.573413, 50.560345], [30.579045, 50.560703], [30.593345, 50.57134], [30.592996, 50.573503], [30.589328, 50.575986], [30.574995, 50.579427], [30.573624, 50.582769], [30.578638, 50.586911], [30.598188, 50.592458], [30.609202, 50.586316], [30.612389, 50.586118], [30.641082, 50.595145], [30.643434, 50.59783], [30.6418, 50.600085], [30.628771, 50.603689], [30.626225, 50.607592], [30.627077, 50.609896], [30.634304, 50.611803], [30.64698, 50.611429], [30.648666, 50.621859], [30.656424, 50.633304], [30.660857, 50.643855], [30.669467, 50.645786], [30.669328, 50.649829], [30.672473, 50.653777], [30.699668, 50.657471], [30.69921, 50.661534], [30.67812, 50.672401], [30.677805, 50.68916], [30.673425, 50.713726], [30.674447, 50.715119], [30.68015, 50.715603], [30.697696, 50.721501], [30.7095, 50.722883], [30.71647, 50.727323], [30.716193, 50.730367], [30.713038, 50.731058], [30.722169, 50.740617], [30.739338, 50.765303], [30.754621, 50.776213], [30.758037, 50.773448], [30.769495, 50.779212], [30.776247, 50.778059], [30.779758, 50.774909], [30.800177, 50.768585], [30.810757, 50.769908], [30.827415, 50.762771], [30.834962, 50.761554], [30.837436, 50.766876], [30.843549, 50.766952], [30.844716, 50.772132], [30.870881, 50.780411], [30.874581, 50.777066], [30.854613, 50.770996], [30.844724, 50.765304], [30.83812, 50.757347], [30.841983, 50.75579], [30.84176, 50.754001], [30.828667, 50.755504], [30.828135, 50.750331], [30.831749, 50.748848], [30.83342, 50.745311], [30.836376, 50.744785], [30.874081, 50.746296], [30.875347, 50.765557], [30.879208, 50.769391], [30.88808, 50.773507], [30.890111, 50.773118], [30.893974, 50.766141], [30.933344, 50.76392], [30.932337, 50.758736], [30.948707, 50.757524], [30.955071, 50.762987], [30.981664, 50.76301], [31.014661, 50.765528], [31.015904, 50.763804], [31.03095, 50.761916], [31.071041, 50.764224], [31.075522, 50.780784], [31.125799, 50.774593], [31.122852, 50.765987], [31.121513, 50.751613], [31.139867, 50.746589], [31.149528, 50.737022], [31.157785, 50.736976], [31.166056, 50.733429], [31.16427, 50.725403], [31.188661, 50.723758], [31.188844, 50.702999], [31.205106, 50.707229], [31.205076, 50.696979], [31.218227, 50.696968], [31.224181, 50.667881], [31.218051, 50.666546], [31.205013, 50.656478], [31.201118, 50.649623], [31.200531, 50.64168], [31.202267, 50.638972], [31.226187, 50.626994], [31.219241, 50.619998], [31.227859, 50.613944], [31.227571, 50.612822], [31.218982, 50.606536], [31.168564, 50.609171], [31.167346, 50.594991], [31.187036, 50.594579], [31.188178, 50.575216], [31.215899, 50.575018], [31.216812, 50.571123], [31.241256, 50.570727], [31.241115, 50.568633], [31.246044, 50.568637], [31.245914, 50.563262], [31.249756, 50.557109], [31.25996, 50.55823], [31.259794, 50.55099], [31.25368, 50.543668], [31.270484, 50.537188], [31.289654, 50.534617], [31.318857, 50.526519], [31.322284, 50.511828], [31.328497, 50.500529], [31.34096, 50.510108], [31.356887, 50.529712], [31.370494, 50.534672], [31.378798, 50.52874], [31.413491, 50.516063], [31.419574, 50.508026], [31.417282, 50.502159], [31.444475, 50.500564], [31.446064, 50.505497], [31.452472, 50.505814], [31.454893, 50.507245], [31.456047, 50.510548], [31.485158, 50.517629], [31.492103, 50.519955], [31.491945, 50.522492], [31.509889, 50.523123], [31.511556, 50.52062], [31.516931, 50.5217], [31.521061, 50.52305], [31.521047, 50.528112], [31.525463, 50.529783], [31.531586, 50.527239], [31.534984, 50.528253], [31.540549, 50.523817], [31.554219, 50.518884], [31.564143, 50.518518], [31.566626, 50.519709], [31.569752, 50.522066], [31.571009, 50.528234], [31.630924, 50.521926], [31.64233, 50.527808], [31.645861, 50.531368], [31.647476, 50.536106], [31.645585, 50.550419], [31.64685, 50.553265], [31.662051, 50.553867], [31.668099, 50.549477], [31.687388, 50.562379], [31.78149, 50.559137], [31.777937, 50.576315], [31.789402, 50.578882], [31.788938, 50.587446], [31.784137, 50.605514], [31.811347, 50.606189], [31.80987, 50.611686], [31.810072, 50.62218], [31.843386, 50.626538], [31.858571, 50.630623], [31.868023, 50.617142], [31.87236, 50.619633], [31.883224, 50.606445], [31.887001, 50.60949], [31.88944, 50.608536], [31.89747, 50.603573], [31.91318, 50.597649], [31.924662, 50.589909], [31.925393, 50.583897], [31.927465, 50.580666], [31.940264, 50.571259], [31.943746, 50.565552], [31.945107, 50.557518], [31.951722, 50.55061], [31.954984, 50.543591], [31.960322, 50.541767], [31.982752, 50.539681], [32.032211, 50.541776], [32.06302, 50.540967], [32.062043, 50.528676], [32.05288, 50.522847], [32.062773, 50.51146], [32.044973, 50.495995], [32.044829, 50.493931], [32.008207, 50.486691], [32.001016, 50.497154], [31.99574, 50.496842], [31.993655, 50.494938], [31.986135, 50.496185], [31.984689, 50.494747], [31.984643, 50.486709], [31.983192, 50.483894], [31.978852, 50.484637], [31.974215, 50.489146], [31.963517, 50.485904], [31.967706, 50.482188], [31.970868, 50.482375], [31.971202, 50.483771], [31.974025, 50.481284], [31.978425, 50.481395], [31.969084, 50.472606], [31.972878, 50.466472], [32.024017, 50.457935], [32.027359, 50.436614], [32.039459, 50.427787], [32.042886, 50.409907], [32.047353, 50.401225], [32.057416, 50.39775], [32.098069, 50.415856], [32.103093, 50.411743], [32.077502, 50.392509], [32.083693, 50.386565], [32.081831, 50.38148], [32.082514, 50.378192], [32.074778, 50.372851], [32.068232, 50.372298], [32.067076, 50.374385], [32.053061, 50.38333], [32.037721, 50.385234], [32.034059, 50.389976], [32.010045, 50.390101], [32.008279, 50.38035], [32.006326, 50.37742], [32.013884, 50.371409], [32.026652, 50.364912], [32.027712, 50.355619], [32.036578, 50.346792], [32.033092, 50.344725], [32.029514, 50.343363], [32.012827, 50.343378], [32.007513, 50.346308], [31.980549, 50.349545], [31.971442, 50.365327], [31.8937, 50.368389], [31.83465, 50.404659], [31.775446, 50.403377], [31.764364, 50.400855], [31.758269, 50.402373], [31.757894, 50.403602], [31.762078, 50.406726], [31.761621, 50.408481], [31.747416, 50.40956], [31.744996, 50.407817], [31.743678, 50.400748], [31.736344, 50.393702], [31.714178, 50.360445], [31.714111, 50.357927], [31.718768, 50.350874], [31.715812, 50.347719], [31.703996, 50.342614], [31.701364, 50.336682], [31.697938, 50.334573], [31.691132, 50.333745], [31.682401, 50.327027], [31.669673, 50.322873], [31.668775, 50.320008]]], [[[30.732287, 50.512238], [30.723805, 50.511063], [30.722297, 50.522171], [30.745687, 50.523694], [30.74698, 50.51732], [30.732287, 50.512238]]]]}}, {"type": "Feature", "properties": {"NAME": "Бучанський район", "NAME_SHORT": "Бучанський", "ADMIN_LVL": "6", "source": "slawomirmatuszak/ukrainian_geodata rayony.geojson (UA raions 2020)"}, "geometry": {"type": "MultiPolygon", "coordinates": [[[[30.33759, 50.485638], [30.33641, 50.483189], [30.320933, 50.486721], [30.320061, 50.49065], [30.317419, 50.492008], [30.31786, 50.494144], [30.319624, 50.495656], [30.325871, 50.492802], [30.334639, 50.493034], [30.338389, 50.497025], [30.346318, 50.496342], [30.34708, 50.491619], [30.33759, 50.485638]]], [[[30.429243, 50.379329], [30.412331, 50.371207], [30.390998, 50.368561], [30.384178, 50.362736], [30.37112, 50.358743], [30.361322, 50.350879], [30.358343, 50.352234], [30.3579, 50.355342], [30.358007, 50.35829], [30.360872, 50.36117], [30.339929, 50.375708], [30.335559, 50.374296], [30.306391, 50.350212], [30.294799, 50.357317], [30.286493, 50.355795], [30.27276, 50.347571], [30.265647, 50.350274], [30.24988, 50.341366], [30.245502, 50.337093], [30.241901, 50.317681], [30.217415, 50.336323], [30.164317, 50.350311], [30.154777, 50.348773], [30.151246, 50.346144], [30.131839, 50.349253], [30.114213, 50.345687], [30.105674, 50.340978], [30.09179, 50.330232], [30.088256, 50.325624], [30.077945, 50.329687], [30.069631, 50.342222], [30.063366, 50.347677], [30.066076, 50.356783], [30.081186, 50.357691], [30.079119, 50.360445], [30.064444, 50.367136], [30.056369, 50.376081], [30.034324, 50.377874], [30.034543, 50.385103], [30.026553, 50.387914], [30.026236, 50.395281], [29.995445, 50.399828], [29.993856, 50.400648], [29.99589, 50.404234], [29.967888, 50.408505], [29.971364, 50.402822], [29.981465, 50.397332], [29.985875, 50.391102], [29.993715, 50.389512], [29.996439, 50.387129], [29.985913, 50.368389], [29.98553, 50.349091], [29.953747, 50.339271], [29.94456, 50.338021], [29.920678, 50.342331], [29.924968, 50.31859], [29.909471, 50.316754], [29.909874, 50.303069], [29.892018, 50.303681], [29.893628, 50.300695], [29.886554, 50.297481], [29.880042, 50.300141], [29.863014, 50.300089], [29.861608, 50.302261], [29.812379, 50.307854], [29.808347, 50.315131], [29.796794, 50.31942], [29.765361, 50.355176], [29.760203, 50.354123], [29.76451, 50.344123], [29.717004, 50.315851], [29.689837, 50.314514], [29.69234, 50.324509], [29.674319, 50.321487], [29.659791, 50.324485], [29.64423, 50.323425], [29.625998, 50.328647], [29.612115, 50.341392], [29.622428, 50.345928], [29.636353, 50.356513], [29.637763, 50.358779], [29.63489, 50.370021], [29.635989, 50.371162], [29.630891, 50.372615], [29.624867, 50.369243], [29.622693, 50.365871], [29.618941, 50.366634], [29.61695, 50.365364], [29.611423, 50.371616], [29.602979, 50.374374], [29.590763, 50.375225], [29.591253, 50.381519], [29.587451, 50.392185], [29.589408, 50.401824], [29.55993, 50.423225], [29.479263, 50.414099], [29.482738, 50.405028], [29.456407, 50.400064], [29.442011, 50.417032], [29.442954, 50.41879], [29.448563, 50.420782], [29.468955, 50.416941], [29.471369, 50.422179], [29.481498, 50.420264], [29.487034, 50.42882], [29.496705, 50.435538], [29.500651, 50.4435], [29.497694, 50.450828], [29.474428, 50.449664], [29.473667, 50.453154], [29.454153, 50.451449], [29.446291, 50.452895], [29.455662, 50.471678], [29.465633, 50.466033], [29.482433, 50.46059], [29.489223, 50.464164], [29.49414, 50.464744], [29.499319, 50.469131], [29.506797, 50.466701], [29.511497, 50.471504], [29.502873, 50.484867], [29.508006, 50.488391], [29.503224, 50.496853], [29.506093, 50.50066], [29.500426, 50.503846], [29.460771, 50.514999], [29.458696, 50.51678], [29.459247, 50.519233], [29.464275, 50.521354], [29.466316, 50.525493], [29.46566, 50.527229], [29.467231, 50.528249], [29.461518, 50.532428], [29.460244, 50.537716], [29.458477, 50.538834], [29.45933, 50.540509], [29.478676, 50.53978], [29.48613, 50.537594], [29.492089, 50.544053], [29.501551, 50.549393], [29.50154, 50.553959], [29.498856, 50.559384], [29.5003, 50.568254], [29.503292, 50.574289], [29.497331, 50.579423], [29.497734, 50.588655], [29.494207, 50.594198], [29.474697, 50.608137], [29.460921, 50.611593], [29.445629, 50.620161], [29.478427, 50.627538], [29.467281, 50.63344], [29.478681, 50.639234], [29.488607, 50.646704], [29.477719, 50.654193], [29.478241, 50.65639], [29.482147, 50.657542], [29.482222, 50.659129], [29.486431, 50.661822], [29.490431, 50.662985], [29.494587, 50.661231], [29.502474, 50.661162], [29.502434, 50.6584], [29.508754, 50.657363], [29.529563, 50.663809], [29.531422, 50.667507], [29.527714, 50.666896], [29.531988, 50.674156], [29.528838, 50.677978], [29.533629, 50.680214], [29.536704, 50.678394], [29.538922, 50.682281], [29.541745, 50.681678], [29.543194, 50.685299], [29.540812, 50.685978], [29.543299, 50.690387], [29.547171, 50.688675], [29.548502, 50.691772], [29.553404, 50.691475], [29.5516, 50.693542], [29.555729, 50.692718], [29.564884, 50.694934], [29.566731, 50.693809], [29.569636, 50.69551], [29.570828, 50.698788], [29.577303, 50.699757], [29.586071, 50.708955], [29.591785, 50.720826], [29.597991, 50.729302], [29.59625, 50.731534], [29.5941, 50.731591], [29.594123, 50.728505], [29.591529, 50.72849], [29.590182, 50.732758], [29.586362, 50.736741], [29.58695, 50.73866], [29.580534, 50.740567], [29.580395, 50.744656], [29.585783, 50.743088], [29.584856, 50.746674], [29.581728, 50.74717], [29.581774, 50.74907], [29.576633, 50.749264], [29.574759, 50.754044], [29.576647, 50.756135], [29.575714, 50.758074], [29.5716, 50.762117], [29.568716, 50.76283], [29.569396, 50.767427], [29.572772, 50.767606], [29.572637, 50.769548], [29.570899, 50.769167], [29.569886, 50.771517], [29.572858, 50.775118], [29.570438, 50.776853], [29.572572, 50.779783], [29.576202, 50.7773], [29.587594, 50.776239], [29.592964, 50.778459], [29.599603, 50.784338], [29.606391, 50.781152], [29.609575, 50.78174], [29.609557, 50.770895], [29.64934, 50.763636], [29.753533, 50.766311], [29.765007, 50.768226], [29.768613, 50.772449], [29.771417, 50.773212], [29.780304, 50.771481], [29.794564, 50.772553], [29.802103, 50.774732], [29.811181, 50.773049], [29.820681, 50.774297], [29.825564, 50.77636], [29.829251, 50.781518], [29.836437, 50.786314], [29.846422, 50.789694], [29.847401, 50.788198], [29.87308, 50.79492], [29.876127, 50.789267], [29.898278, 50.780584], [29.892621, 50.77368], [29.886411, 50.770613], [29.897707, 50.750902], [29.903929, 50.748259], [29.908348, 50.753706], [29.906395, 50.758867], [29.908311, 50.763212], [29.90434, 50.76943], [29.903324, 50.778627], [29.904559, 50.779173], [29.909854, 50.778639], [29.918275, 50.774898], [29.916728, 50.772684], [29.916945, 50.759554], [29.923075, 50.754435], [29.960026, 50.75484], [29.971772, 50.775451], [29.981503, 50.776504], [29.998915, 50.771076], [30.019007, 50.770519], [30.023131, 50.772514], [30.049751, 50.772793], [30.052581, 50.776199], [30.05717, 50.777096], [30.059831, 50.77617], [30.061904, 50.770271], [30.049871, 50.763889], [30.047245, 50.754807], [30.057854, 50.743515], [30.05785, 50.741295], [30.043435, 50.729599], [30.075048, 50.708107], [30.078891, 50.707115], [30.080477, 50.699089], [30.095675, 50.695347], [30.096167, 50.691525], [30.110318, 50.691105], [30.11406, 50.705284], [30.104023, 50.707115], [30.106685, 50.715435], [30.149682, 50.709508], [30.171046, 50.710269], [30.182879, 50.713253], [30.19678, 50.712859], [30.217667, 50.718722], [30.264387, 50.714436], [30.264395, 50.706582], [30.31067, 50.686301], [30.303957, 50.681707], [30.303698, 50.677027], [30.296417, 50.6682], [30.282514, 50.663235], [30.282636, 50.657672], [30.280487, 50.655624], [30.284253, 50.64568], [30.283195, 50.643874], [30.275012, 50.640267], [30.280974, 50.633943], [30.284268, 50.625337], [30.290285, 50.620885], [30.297348, 50.619683], [30.298998, 50.612065], [30.301172, 50.609918], [30.316461, 50.607961], [30.328255, 50.604448], [30.330104, 50.601923], [30.329669, 50.599657], [30.320693, 50.599156], [30.313031, 50.602613], [30.293667, 50.604287], [30.283638, 50.599042], [30.283859, 50.595861], [30.285968, 50.589387], [30.29297, 50.58468], [30.303342, 50.580545], [30.315286, 50.571336], [30.307192, 50.570489], [30.327, 50.56449], [30.32529, 50.562849], [30.331461, 50.559165], [30.341504, 50.557231], [30.331538, 50.5565], [30.330721, 50.554313], [30.331995, 50.553244], [30.3297, 50.5529], [30.332591, 50.551368], [30.328958, 50.549402], [30.325882, 50.550048], [30.326498, 50.546266], [30.310878, 50.55513], [30.301227, 50.553307], [30.29808, 50.554451], [30.297359, 50.551643], [30.3029, 50.547943], [30.301563, 50.547447], [30.304469, 50.543848], [30.302484, 50.533443], [30.292776, 50.532734], [30.290252, 50.529011], [30.290975, 50.527317], [30.281455, 50.522018], [30.273053, 50.520947], [30.266996, 50.517686], [30.260883, 50.511595], [30.259481, 50.509768], [30.269526, 50.502903], [30.270302, 50.498801], [30.265184, 50.493704], [30.266302, 50.492418], [30.262753, 50.487742], [30.25301, 50.48669], [30.251835, 50.484988], [30.249106, 50.474306], [30.25591, 50.472171], [30.257782, 50.469766], [30.247751, 50.461968], [30.23995, 50.452416], [30.239393, 50.450117], [30.246109, 50.442283], [30.246106, 50.439411], [30.242993, 50.438514], [30.242302, 50.434781], [30.237365, 50.431508], [30.236189, 50.426818], [30.244744, 50.423224], [30.250319, 50.425943], [30.255296, 50.431026], [30.261203, 50.431264], [30.269239, 50.426275], [30.276291, 50.430705], [30.274769, 50.43167], [30.281828, 50.442887], [30.281378, 50.447331], [30.321658, 50.442378], [30.349681, 50.44569], [30.348804, 50.449517], [30.351222, 50.449069], [30.351031, 50.445044], [30.357796, 50.444872], [30.359898, 50.433655], [30.36639, 50.424628], [30.3623, 50.423593], [30.366392, 50.424628], [30.370998, 50.419955], [30.39424, 50.405664], [30.419844, 50.397408], [30.417951, 50.396441], [30.423427, 50.395872], [30.421933, 50.394037], [30.426108, 50.391233], [30.428589, 50.391838], [30.442108, 50.381678], [30.435088, 50.375908], [30.429243, 50.379329]]]]}}, {"type": "Feature", "properties": {"NAME": "Фастівський район", "NAME_SHORT": "Фастівський", "ADMIN_LVL": "6", "source": "slawomirmatuszak/ukrainian_geodata rayony.geojson (UA raions 2020)"}, "geometry": {"type": "MultiPolygon", "coordinates": [[[[29.784337, 49.900423], [29.731696, 49.882161], [29.700416, 49.90614], [29.646429, 49.877926], [29.633995, 49.87711], [29.628786, 49.885601], [29.633032, 49.886295], [29.642265, 49.897976], [29.652671, 49.90215], [29.665032, 49.910882], [29.728305, 49.933943], [29.724309, 49.938898], [29.724349, 49.941199], [29.73293, 49.945647], [29.722316, 49.96113], [29.731508, 49.963546], [29.729614, 49.968627], [29.727573, 49.970416], [29.713213, 49.967848], [29.711685, 49.971857], [29.717586, 49.977973], [29.695895, 49.989763], [29.694773, 49.996204], [29.690539, 49.99987], [29.698784, 50.005462], [29.697888, 50.006526], [29.691481, 50.004936], [29.693345, 50.006187], [29.689849, 50.009818], [29.682682, 50.013087], [29.676746, 50.030055], [29.672568, 50.032604], [29.694022, 50.042026], [29.695772, 50.06778], [29.69145, 50.072937], [29.648518, 50.105614], [29.669236, 50.114083], [29.670824, 50.116368], [29.657003, 50.118191], [29.657352, 50.124367], [29.68838, 50.143258], [29.693277, 50.155725], [29.68433, 50.156644], [29.673073, 50.161233], [29.664116, 50.168386], [29.650368, 50.173105], [29.643172, 50.179986], [29.646447, 50.181955], [29.649541, 50.186818], [29.654817, 50.187795], [29.675159, 50.208418], [29.683659, 50.219489], [29.682331, 50.222533], [29.685019, 50.226675], [29.690071, 50.229033], [29.699188, 50.23033], [29.7003, 50.231806], [29.689051, 50.240187], [29.683532, 50.24729], [29.680553, 50.25453], [29.676383, 50.255118], [29.673531, 50.260504], [29.662982, 50.265765], [29.672345, 50.26768], [29.669556, 50.272608], [29.665482, 50.275057], [29.671862, 50.278163], [29.680108, 50.273811], [29.689287, 50.279941], [29.689342, 50.284496], [29.677513, 50.28535], [29.675497, 50.296623], [29.680837, 50.311599], [29.688968, 50.310485], [29.689837, 50.314514], [29.717004, 50.315851], [29.76451, 50.344123], [29.760203, 50.354123], [29.765361, 50.355176], [29.796794, 50.31942], [29.808347, 50.315131], [29.812379, 50.307854], [29.861608, 50.302261], [29.863014, 50.300089], [29.880042, 50.300141], [29.886554, 50.297481], [29.893628, 50.300695], [29.892018, 50.303681], [29.909874, 50.303069], [29.909471, 50.316754], [29.924968, 50.31859], [29.920678, 50.342331], [29.94456, 50.338021], [29.953747, 50.339271], [29.98553, 50.349091], [29.985913, 50.368389], [29.996439, 50.387129], [29.993715, 50.389512], [29.985875, 50.391102], [29.981465, 50.397332], [29.971364, 50.402822], [29.967888, 50.408505], [29.99589, 50.404234], [29.993856, 50.400648], [29.995445, 50.399828], [30.026236, 50.395281], [30.026553, 50.387914], [30.034543, 50.385103], [30.034324, 50.377874], [30.056369, 50.376081], [30.064444, 50.367136], [30.079119, 50.360445], [30.081186, 50.357691], [30.066076, 50.356783], [30.063366, 50.347677], [30.069631, 50.342222], [30.077945, 50.329687], [30.088256, 50.325624], [30.09179, 50.330232], [30.105674, 50.340978], [30.114213, 50.345687], [30.131839, 50.349253], [30.151246, 50.346144], [30.154777, 50.348773], [30.164317, 50.350311], [30.217415, 50.336323], [30.241901, 50.317681], [30.245502, 50.337093], [30.24988, 50.341366], [30.265647, 50.350274], [30.27276, 50.347571], [30.286493, 50.355795], [30.294799, 50.357317], [30.306391, 50.350212], [30.330634, 50.37142], [30.339929, 50.375708], [30.360872, 50.36117], [30.358007, 50.35829], [30.3579, 50.355342], [30.358343, 50.352234], [30.361322, 50.350879], [30.37112, 50.358743], [30.384178, 50.362736], [30.390998, 50.368561], [30.412331, 50.371207], [30.429243, 50.379329], [30.435088, 50.375908], [30.430133, 50.371783], [30.43704, 50.367687], [30.435709, 50.360775], [30.437798, 50.359962], [30.437544, 50.356966], [30.452157, 50.354636], [30.454906, 50.359765], [30.457768, 50.360991], [30.468424, 50.360087], [30.467272, 50.358493], [30.469574, 50.357824], [30.47022, 50.355451], [30.468193, 50.352575], [30.473136, 50.351361], [30.473314, 50.342765], [30.474498, 50.341693], [30.457957, 50.342379], [30.448077, 50.334957], [30.438168, 50.334521], [30.428538, 50.325087], [30.433291, 50.319916], [30.416954, 50.319542], [30.421971, 50.308609], [30.437956, 50.306955], [30.438597, 50.30279], [30.42581, 50.303137], [30.426573, 50.295412], [30.4079, 50.296324], [30.401169, 50.291948], [30.393614, 50.29421], [30.391772, 50.293417], [30.397915, 50.283857], [30.388383, 50.283151], [30.391778, 50.277602], [30.384869, 50.272795], [30.39538, 50.266649], [30.386283, 50.256668], [30.401843, 50.252052], [30.397755, 50.244373], [30.390213, 50.243975], [30.386043, 50.240504], [30.391974, 50.230564], [30.39698, 50.228972], [30.400025, 50.231551], [30.404851, 50.22946], [30.39998, 50.22425], [30.425433, 50.214211], [30.414055, 50.203527], [30.416456, 50.197353], [30.390448, 50.196973], [30.390895, 50.167976], [30.380127, 50.166653], [30.375033, 50.17033], [30.370618, 50.168731], [30.361747, 50.175338], [30.352281, 50.175105], [30.352316, 50.171336], [30.342178, 50.172751], [30.339206, 50.174537], [30.337312, 50.180182], [30.33411, 50.182944], [30.336326, 50.184844], [30.336979, 50.190337], [30.340635, 50.195529], [30.31972, 50.199408], [30.325283, 50.200614], [30.326224, 50.202666], [30.324896, 50.204413], [30.327982, 50.206015], [30.327088, 50.209522], [30.332329, 50.208633], [30.333657, 50.212704], [30.329211, 50.213886], [30.327994, 50.220131], [30.335353, 50.21701], [30.338544, 50.220215], [30.326228, 50.225952], [30.326585, 50.233707], [30.322029, 50.233806], [30.321127, 50.224892], [30.295374, 50.226775], [30.293972, 50.224909], [30.307385, 50.219181], [30.309087, 50.217181], [30.307152, 50.20167], [30.309769, 50.199298], [30.30782, 50.197326], [30.301812, 50.199775], [30.298356, 50.199046], [30.289961, 50.192584], [30.296633, 50.188048], [30.290564, 50.190223], [30.288702, 50.188346], [30.283509, 50.188281], [30.267825, 50.196195], [30.246104, 50.211099], [30.251777, 50.215796], [30.241637, 50.221447], [30.234678, 50.216607], [30.229834, 50.218555], [30.231891, 50.215239], [30.228815, 50.208112], [30.234642, 50.201528], [30.221133, 50.189694], [30.208286, 50.188722], [30.208117, 50.179597], [30.227841, 50.180962], [30.231342, 50.177339], [30.240392, 50.180325], [30.239595, 50.164993], [30.253283, 50.155727], [30.244542, 50.147513], [30.239456, 50.145773], [30.214302, 50.150087], [30.205189, 50.150139], [30.200345, 50.148324], [30.206049, 50.146769], [30.205652, 50.140029], [30.218794, 50.134721], [30.219346, 50.128008], [30.179782, 50.110801], [30.18421, 50.10675], [30.146776, 50.106387], [30.128843, 50.100573], [30.098467, 50.075597], [30.104151, 50.066709], [30.097017, 50.050863], [30.098316, 50.048353], [30.094919, 50.026578], [30.100043, 50.022615], [30.094325, 50.015271], [30.079638, 50.014355], [30.076691, 50.017872], [30.072632, 50.01714], [30.060369, 50.023846], [29.994472, 50.035183], [29.973736, 50.041133], [29.957218, 50.05162], [29.927056, 50.038397], [29.935989, 50.022125], [29.929735, 50.018688], [29.925626, 50.010554], [29.925288, 50.005845], [29.925642, 50.003295], [29.936397, 50.004039], [29.936852, 49.995373], [29.954077, 49.983425], [29.96234, 49.98028], [29.980662, 49.968226], [29.979623, 49.962645], [29.984052, 49.953707], [29.97014, 49.940622], [29.963875, 49.938169], [29.955021, 49.937826], [29.944063, 49.933603], [29.918342, 49.918576], [29.892734, 49.899967], [29.89121, 49.89695], [29.894991, 49.895897], [29.894652, 49.89198], [29.88794, 49.892109], [29.885614, 49.894005], [29.877668, 49.893066], [29.874346, 49.897236], [29.867235, 49.890128], [29.871467, 49.888889], [29.851851, 49.871013], [29.825474, 49.877666], [29.784337, 49.900423]]]]}}]}